[{"OBJECT_NAME":"THORAD AGENA D DEB","OBJECT_ID":"1970-025CJ","EPOCH":"2026-03-05T05:59:56.525856","MEAN_MOTION":16.05906055,"ECCENTRICITY":0.0011376,"INCLINATION":99.5846,"RA_OF_ASC_NODE":76.8615,"ARG_OF_PERICENTER":181.1558,"MEAN_ANOMALY":178.9691,"EPHEMERIS_TYPE":0,"CLASSIFICATION_TYPE":"U","NORAD_CAT_ID":4735,"ELEMENT_SET_NO":999,"REV_AT_EPOCH":88062,"BSTAR":0.014291,"MEAN_MOTION_DOT":0.06791631,"MEAN_MOTION_DDOT":0.13744},{"OBJECT_NAME":"COSMOS 886 DEB","OBJECT_ID":"1976-126BN","EPOCH":"2026-03-05T10:21:52.276320","MEAN_MOTION":16.19434659,"ECCENTRICITY":0.0017078,"INCLINATION":65.5928,"RA_OF_ASC_NODE":307.6976,"ARG_OF_PERICENTER":206.5599,"MEAN_ANOMALY":153.4711,"EPHEMERIS_TYPE":0,"CLASSIFICATION_TYPE":"U","NORAD_CAT_ID":14501,"ELEMENT_SET_NO":999,"REV_AT_EPOCH":14999,"BSTAR":0.0047049,"MEAN_MOTION_DOT":0.08967905,"MEAN_MOTION_DDOT":6.7923e-6},{"OBJECT_NAME":"COSMOS 1812","OBJECT_ID":"1987-003A","EPOCH":"2026-03-06T03:08:00.778848","MEAN_MOTION":16.49575463,"ECCENTRICITY":0.0011771,"INCLINATION":82.4628,"RA_OF_ASC_NODE":199.5909,"ARG_OF_PERICENTER":272.0058,"MEAN_ANOMALY":87.9898,"EPHEMERIS_TYPE":0,"CLASSIFICATION_TYPE":"U","NORAD_CAT_ID":17295,"ELEMENT_SET_NO":999,"REV_AT_EPOCH":14391,"BSTAR":0.00014058925,"MEAN_MOTION_DOT":0.12040831,"MEAN_MOTION_DDOT":-1.282894e-6},{"OBJECT_NAME":"CZ-4 DEB","OBJECT_ID":"1990-081BJ","EPOCH":"2026-03-06T20:23:46.136256","MEAN_MOTION":16.18322014,"ECCENTRICITY":0.0015132,"INCLINATION":98.0719,"RA_OF_ASC_NODE":155.7725,"ARG_OF_PERICENTER":295.1511,"MEAN_ANOMALY":64.8204,"EPHEMERIS_TYPE":0,"CLASSIFICATION_TYPE":"U","NORAD_CAT_ID":20898,"ELEMENT_SET_NO":999,"REV_AT_EPOCH":86770,"BSTAR":0.006184,"MEAN_MOTION_DOT":0.10467028,"MEAN_MOTION_DDOT":2.8365e-6},{"OBJECT_NAME":"FENGYUN 1C DEB","OBJECT_ID":"1999-025AHC","EPOCH":"2026-03-06T01:52:18.553728","MEAN_MOTION":15.98614735,"ECCENTRICITY":0.00223201,"INCLINATION":98.326,"RA_OF_ASC_NODE":214.1666,"ARG_OF_PERICENTER":276.5224,"MEAN_ANOMALY":83.3509,"EPHEMERIS_TYPE":0,"CLASSIFICATION_TYPE":"U","NORAD_CAT_ID":30490,"ELEMENT_SET_NO":999,"REV_AT_EPOCH":775,"BSTAR":0.0071770465,"MEAN_MOTION_DOT":0.03007822,"MEAN_MOTION_DDOT":0.0099151134},{"OBJECT_NAME":"CZ-2D DEB","OBJECT_ID":"2005-024J","EPOCH":"2026-03-01T21:43:49.210752","MEAN_MOTION":15.92111318,"ECCENTRICITY":0.0004089,"INCLINATION":97.1482,"RA_OF_ASC_NODE":103.0739,"ARG_OF_PERICENTER":145.2826,"MEAN_ANOMALY":214.8716,"EPHEMERIS_TYPE":0,"CLASSIFICATION_TYPE":"U","NORAD_CAT_ID":31409,"ELEMENT_SET_NO":999,"REV_AT_EPOCH":11718,"BSTAR":0.00072484,"MEAN_MOTION_DOT":0.0023946,"MEAN_MOTION_DDOT":2.3346e-5},{"OBJECT_NAME":"ZIYUAN 3-01 (ZY 3-01)","OBJECT_ID":"2012-001A","EPOCH":"2026-03-06T21:01:39.991584","MEAN_MOTION":16.00491799,"ECCENTRICITY":0.0002888,"INCLINATION":97.1565,"RA_OF_ASC_NODE":140.635,"ARG_OF_PERICENTER":246.4289,"MEAN_ANOMALY":113.6687,"EPHEMERIS_TYPE":0,"CLASSIFICATION_TYPE":"U","NORAD_CAT_ID":38046,"ELEMENT_SET_NO":999,"REV_AT_EPOCH":78825,"BSTAR":0.00098494,"MEAN_MOTION_DOT":0.00512079,"MEAN_MOTION_DDOT":0.00011712},{"OBJECT_NAME":"HUMSAT-D","OBJECT_ID":"2013-066T","EPOCH":"2026-03-06T11:56:34.571904","MEAN_MOTION":16.07549904,"ECCENTRICITY":0.00070223,"INCLINATION":97.4816,"RA_OF_ASC_NODE":78.4106,"ARG_OF_PERICENTER":171.4042,"MEAN_ANOMALY":188.7362,"EPHEMERIS_TYPE":0,"CLASSIFICATION_TYPE":"U","NORAD_CAT_ID":39433,"ELEMENT_SET_NO":999,"REV_AT_EPOCH":67095,"BSTAR":0.0020051067,"MEAN_MOTION_DOT":0.01554058,"MEAN_MOTION_DDOT":0.0016472257},{"OBJECT_NAME":"H-2A DEB","OBJECT_ID":"2018-084E","EPOCH":"2026-03-06T13:08:22.111296","MEAN_MOTION":16.0934745,"ECCENTRICITY":0.00037808,"INCLINATION":98,"RA_OF_ASC_NODE":281.9814,"ARG_OF_PERICENTER":291.2449,"MEAN_ANOMALY":68.8428,"EPHEMERIS_TYPE":0,"CLASSIFICATION_TYPE":"U","NORAD_CAT_ID":43675,"ELEMENT_SET_NO":999,"REV_AT_EPOCH":40262,"BSTAR":0.0026999565,"MEAN_MOTION_DOT":0.02219868,"MEAN_MOTION_DDOT":0.0048114553},{"OBJECT_NAME":"SPACEBEE-7","OBJECT_ID":"2018-099BL","EPOCH":"2026-03-06T19:06:19.711872","MEAN_MOTION":16.19527511,"ECCENTRICITY":0.0009897,"INCLINATION":97.4307,"RA_OF_ASC_NODE":152.6462,"ARG_OF_PERICENTER":277.3214,"MEAN_ANOMALY":82.6949,"EPHEMERIS_TYPE":0,"CLASSIFICATION_TYPE":"U","NORAD_CAT_ID":43816,"ELEMENT_SET_NO":999,"REV_AT_EPOCH":39875,"BSTAR":0.0019778,"MEAN_MOTION_DOT":0.03613902,"MEAN_MOTION_DDOT":2.4477e-6},{"OBJECT_NAME":"STARLINK-1112","OBJECT_ID":"2020-001M","EPOCH":"2026-03-06T14:56:40.684704","MEAN_MOTION":16.10547058,"ECCENTRICITY":0.00060337,"INCLINATION":53.0314,"RA_OF_ASC_NODE":256.8656,"ARG_OF_PERICENTER":286.5823,"MEAN_ANOMALY":73.4547,"EPHEMERIS_TYPE":0,"CLASSIFICATION_TYPE":"U","NORAD_CAT_ID":44925,"ELEMENT_SET_NO":999,"REV_AT_EPOCH":34083,"BSTAR":0.00094399702,"MEAN_MOTION_DOT":0.0094222,"MEAN_MOTION_DDOT":0.00052662032},{"OBJECT_NAME":"STARLINK-1298","OBJECT_ID":"2020-019BF","EPOCH":"2026-03-06T22:00:01.999584","MEAN_MOTION":15.94536946,"ECCENTRICITY":0.0006697,"INCLINATION":53.0348,"RA_OF_ASC_NODE":68.1092,"ARG_OF_PERICENTER":10.0715,"MEAN_ANOMALY":337.0766,"EPHEMERIS_TYPE":0,"CLASSIFICATION_TYPE":"U","NORAD_CAT_ID":45413,"ELEMENT_SET_NO":999,"REV_AT_EPOCH":600,"BSTAR":0.00072702,"MEAN_MOTION_DOT":0.00279759,"MEAN_MOTION_DDOT":4.153e-5},{"OBJECT_NAME":"STARLINK-1398","OBJECT_ID":"2020-035AU","EPOCH":"2026-03-06T20:00:00.999360","MEAN_MOTION":15.93297207,"ECCENTRICITY":0.0003899,"INCLINATION":53.0359,"RA_OF_ASC_NODE":313.8379,"ARG_OF_PERICENTER":165.1566,"MEAN_ANOMALY":265.1285,"EPHEMERIS_TYPE":0,"CLASSIFICATION_TYPE":"U","NORAD_CAT_ID":45699,"ELEMENT_SET_NO":999,"REV_AT_EPOCH":593,"BSTAR":0.00072344,"MEAN_MOTION_DOT":0.00260006,"MEAN_MOTION_DDOT":3.6899e-5},{"OBJECT_NAME":"STARLINK-1484","OBJECT_ID":"2020-038AC","EPOCH":"2026-03-06T20:06:21.682944","MEAN_MOTION":16.00394115,"ECCENTRICITY":0.0006567,"INCLINATION":52.9981,"RA_OF_ASC_NODE":71.3542,"ARG_OF_PERICENTER":52.6869,"MEAN_ANOMALY":307.4757,"EPHEMERIS_TYPE":0,"CLASSIFICATION_TYPE":"U","NORAD_CAT_ID":45756,"ELEMENT_SET_NO":999,"REV_AT_EPOCH":31824,"BSTAR":0.00083957,"MEAN_MOTION_DOT":0.00449064,"MEAN_MOTION_DDOT":9.8362e-5},{"OBJECT_NAME":"STARLINK-1587","OBJECT_ID":"2020-057AS","EPOCH":"2026-03-06T20:00:00.999360","MEAN_MOTION":15.93744162,"ECCENTRICITY":0.0004268,"INCLINATION":53.0318,"RA_OF_ASC_NODE":230.9633,"ARG_OF_PERICENTER":284.7322,"MEAN_ANOMALY":256.4845,"EPHEMERIS_TYPE":0,"CLASSIFICATION_TYPE":"U","NORAD_CAT_ID":46157,"ELEMENT_SET_NO":999,"REV_AT_EPOCH":601,"BSTAR":0.0013266,"MEAN_MOTION_DOT":0.00490871,"MEAN_MOTION_DDOT":0.00010685}]
